HIMAWARI-9
1 41836U 16064A   26119.23131677 -.00000277  00000+0  00000+0 0  9993
2 41836   0.0449 108.0056 0001008 314.9292  18.3130  1.00273501 34710
